STARLINK-31378          
1 58932U 24027B   26120.91668981  .00009485  00000+0  31703-3 0  9993
2 58932  53.1608  66.9153 0001144  96.3421 354.8123 15.31699752  5668
STARLINK-31350          
1 58933U 24027C   26120.76364138  .00000864  00000+0  41292-4 0  9991
2 58933  53.1616  67.5611 0001303  96.7113 263.4036 15.30192570125300
STARLINK-31337          
1 58934U 24027D   26120.82576136  .00009186  00000+0  32146-3 0  9995
2 58934  53.1602  67.2380 0003080  86.6941 273.4413 15.30244882125312
STARLINK-31362          
1 58935U 24027E   26120.87327385  .00000931  00000+0  43552-4 0  9994
2 58935  53.1626  67.5347 0001170  96.2106 263.9028 15.30199491125314
STARLINK-31383          
1 58936U 24027F   26120.87221920  .00000279  00000+0  21553-4 0  9995
2 58936  53.1620  67.5281 0001095  88.1173 271.9953 15.30199170125316
STARLINK-31390          
1 58937U 24027G   26120.01890997 -.00000408  00000+0 -16416-5 0  9997
2 58937  53.1606  71.4456 0001253  81.4133 278.7010 15.30194970125184
STARLINK-31377          
1 58938U 24027H   26120.87116237  .00001113  00000+0  49685-4 0  9995
2 58938  53.1617  67.5195 0001440  89.9077 270.2089 15.30203517125317
STARLINK-31372          
1 58939U 24027J   26120.86483337 -.00001279  00000+0 -31033-4 0  9996
2 58939  53.1606  67.4763 0002789  93.9183 266.2137 15.30189217125315
STARLINK-31371          
1 58940U 24027K   26120.86377990 -.00000176  00000+0  61747-5 0  9995
2 58940  53.1604  67.4736 0001441  82.4494 277.6670 15.30188627125319
STARLINK-31345          
1 58941U 24027L   26120.82789772  .00000032  00000+0  13224-4 0  9993
2 58941  53.1609  67.2520 0001264  98.1950 261.9194 15.30195801125317
STARLINK-31354          
1 58942U 24027M   26120.91668981  .00013606  00000+0  44944-3 0  9995
2 58942  53.1605  67.1665 0001299  99.8174 222.5848 15.31697197  5869
STARLINK-31346          
1 58943U 24027N   26120.57455853  .00000731  00000+0  36813-4 0  9992
2 58943  53.1617  66.3923 0001404 100.6674 259.4485 15.30186644125302
STARLINK-31336          
1 58944U 24027P   26120.87010884  .00003310  00000+0  12383-3 0  9998
2 58944  53.1610  67.5098 0001365  88.0631 272.0526 15.30201576125309
STARLINK-31359          
1 58945U 24027Q   26120.45859600  .00001267  00000+0  54909-4 0  9990
2 58945  53.1623  30.7239 0001089  91.2720 268.8406 15.30193577125807
STARLINK-31331          
1 58946U 24027R   26120.25701507 -.00000928  00000+0 -18130-4 0  9992
2 58946  53.1631  70.0851 0001263  90.2715 269.8431 15.31706624125220
STARLINK-31116          
1 58947U 24027S   26120.91668981  .00011715  00000+0  38896-3 0  9998
2 58947  53.1612  67.0653 0001339  91.4361 282.5407 15.31676495  5864
STARLINK-31311          
1 58948U 24027T   26120.83686733  .00000714  00000+0  36231-4 0  9994
2 58948  53.1603  65.1826 0001298  96.8942 263.2206 15.30192068125341
STARLINK-31294          
1 58949U 24027U   26120.54882849  .00002354  00000+0  91583-4 0  9992
2 58949  53.1600  69.0592 0001565  88.6531 271.4649 15.30195648125262
STARLINK-31330          
1 58951U 24027W   26120.91668981  .00018160  00000+0  54763-3 0  9995
2 58951  53.1613  64.1923 0001087  83.6694 315.9071 15.34380836  5873
STARLINK-31293          
1 58952U 24027X   26120.84267143  .00000861  00000+0  41221-4 0  9998
2 58952  53.1590  67.3400 0001454  95.0328 265.0839 15.30193822125314
HBTSS-SV2               
1 58955U 24028A   26120.77993173  .00000021  00000+0  11007-3 0  9999
2 58955  39.9912 261.7024 0020228 325.5726  34.3709 13.70460925110569
RAPTOR4                 
1 58956U 24028B   26120.75424557 -.00000052  00000+0  28605-4 0  9991
2 58956  39.9907 262.3110 0015353 324.2395  35.7323 13.70185688110543
RAPTOR1                 
1 58957U 24028C   26120.79039976 -.00000038  00000+0  44799-4 0  9999
2 58957  39.9905 261.7330 0012358 335.0127  25.0020 13.70403390110554
RAPTOR3                 
1 58958U 24028D   26120.80297722 -.00000050  00000+0  31101-4 0  9994
2 58958  39.9912 261.0678 0011797 337.7224  22.3009 13.70484012110562
RAPTOR2                 
1 58959U 24028E   26120.76865844 -.00000033  00000+0  50543-4 0  9998
2 58959  39.9908 260.8411 0011932 339.5102  20.5165 13.70552882110560
HBTSS-SV1               
1 58960U 24028F   26120.80282929  .00007049  00000+0  69365-3 0  9996
2 58960  39.9907  27.0213 0011666 228.7563 131.2222 14.92126500100098
STARLINK-31373          
1 58965U 24031A   26120.52496051  .00000682  00000+0  35162-4 0  9992
2 58965  53.1606  55.6245 0000942  98.5019 261.6088 15.30196508124477
STARLINK-31449          
1 58966U 24031B   26120.98005778  .00000778  00000+0  38409-4 0  9998
2 58966  53.1633  53.4867 0001702  92.7965 267.3231 15.30195730124542
STARLINK-31314          
1 58967U 24031C   26120.52918346  .00000057  00000+0  14067-4 0  9997
2 58967  53.1610  55.6486 0001167  97.4769 262.6364 15.30193986124476
STARLINK-31356          
1 58968U 24031D   26120.94684319  .00000434  00000+0  26798-4 0  9997
2 58968  53.1623  26.1086 0001229  72.8424 287.2712 15.30194364124925
STARLINK-31335          
1 58969U 24031E   26120.95525313 -.00000384  00000+0 -82089-6 0  9990
2 58969  53.1632  51.2047 0001682  96.5503 263.5689 15.30201406124573
STARLINK-31368          
1 58970U 24031F   26120.52813306  .00002041  00000+0  81027-4 0  9996
2 58970  53.1619  55.6490 0001292  81.9846 278.1302 15.30193740124479
STARLINK-31333          
1 58971U 24031G   26120.96695243  .00000226  00000+0  19764-4 0  9995
2 58971  53.1638  41.3294 0001311  91.7493 268.3658 15.30194094124719
STARLINK-31351          
1 58972U 24031H   26120.80733251 -.00001206  00000+0 -28608-4 0  9999
2 58972  53.1631  54.5393 0001700  86.5001 273.6195 15.30188097124506
STARLINK-31365          
1 58973U 24031J   26120.55239913  .00000942  00000+0  43950-4 0  9999
2 58973  53.1603  55.7928 0001994  85.2865 274.8363 15.30199116124472
STARLINK-31361          
1 58974U 24031K   26120.54922307  .00000440  00000+0  26965-4 0  9995
2 58974  53.1615  55.7713 0001432  91.9829 268.1336 15.30211296124479
STARLINK-31369          
1 58975U 24031L   26120.55556352  .00000188  00000+0  18465-4 0  9995
2 58975  53.1621  55.8112 0001395  79.2017 280.9141 15.30194238124457
STARLINK-31324          
1 58976U 24031M   26120.95061873 -.00002152  00000+0 -60557-4 0  9993
2 58976  53.1611  54.0077 0001224  74.6879 285.4257 15.30191643124516
STARLINK-31358          
1 58977U 24031N   26120.78727396  .00000650  00000+0  34085-4 0  9990
2 58977  53.1600  54.4021 0001232  98.0156 262.0984 15.30194420124496
STARLINK-31355          
1 58978U 24031P   26120.95378535  .00001200  00000+0  52650-4 0  9997
2 58978  53.1609  54.0276 0001262  76.8251 283.2890 15.30196602124515
STARLINK-31380          
1 58979U 24031Q   26120.95694958  .00000509  00000+0  29318-4 0  9994
2 58979  53.1626  54.0469 0001330  93.0397 267.0756 15.30195624124511
STARLINK-31353          
1 58980U 24031R   26120.95483932  .00000639  00000+0  33704-4 0  9992
2 58980  53.1607  54.0369 0001305  80.8029 279.3119 15.30194574124511
STARLINK-31339          
1 58981U 24031S   26120.96011331  .00000958  00000+0  44452-4 0  9990
2 58981  53.1607  54.0662 0001226  71.5664 288.5470 15.30200401124511
STARLINK-31384          
1 58983U 24031U   26120.96644736  .00000241  00000+0  20271-4 0  9991
2 58983  53.1624  54.1085 0001221  84.0981 276.0159 15.30198589124517
STARLINK-31379          
1 58984U 24031V   26120.97066896 -.00000276  00000+0  28037-5 0  9996
2 58984  53.1614  54.1314 0001094  78.8699 281.2425 15.30195902124517
STARLINK-31385          
1 58985U 24031W   26120.91668981  .02329294  00000+0  64422-1 0  9993
2 58985  53.1612  51.8861 0001899  87.9946 142.2052 15.32803330  5867
STARLINK-31229          
1 58986U 24031X   26120.97699562 -.00001295  00000+0 -31603-4 0  9995
2 58986  53.1610  54.1735 0000977  83.9184 276.1928 15.30196672124513
CE-SAT-IE               
1 58987U 24032A   26120.66912641  .00000488  00000+0  92973-4 0  9997
2 58987  97.9999 176.4128 0001902 203.6673 156.4445 14.68243252117868
TIRSAT                  
1 58989U 24032C   26120.67348986  .00001266  00000+0  20794-3 0  9991
2 58989  97.9997 179.7627 0003611 309.1037  50.9849 14.72345923118098
INSAT-3DS               
1 58990U 24033A   26120.93095013 -.00000153  00000+0  00000+0 0  9992
2 58990   0.1020  87.4844 0001924 308.2608 240.3274  1.00272713 46593
ADRAS-J                 
1 58992U 24034A   26120.98408204  .00020350  00000+0  29088-3 0  9991
2 58992  98.2255 146.0193 0178977 279.2163  78.8876 15.39811232120315
MERAH PUTIH 2           
1 58995U 24035A   26120.72312774  .00000000  00000+0  00000+0 0  9992
2 58995   0.0127 237.3962 0001994 192.9650 161.5697  1.00267118  8116
AAC-AIS-SAT3            
1 58997U 23174DJ  26120.95634288  .00003939  00000+0  47353-3 0  9999
2 58997  97.6276 171.6517 0008205 113.2267 246.9813 14.84461098134143
STARLINK-31468          
1 58998U 24036A   26120.59123187  .00000761  00000+0  37805-4 0  9991
2 58998  53.1600 196.7735 0000792 112.4544 247.6541 15.30188054123283
STARLINK-31440          
1 58999U 24036B   26120.72396220  .00000142  00000+0  16936-4 0  9992
2 58999  53.1609 196.1688 0001181  99.4557 260.6578 15.30192498122488
STARLINK-31529          
1 59000U 24036C   26120.48011682  .00005932  00000+0  21230-3 0  9999
2 59000  53.1603 195.3684 0001492  77.8108 282.3060 15.30191936123204
STARLINK-31431          
1 59002U 24036E   26120.70296670  .00000948  00000+0  44137-4 0  9992
2 59002  53.1604 196.7499 0001142  82.1879 277.9251 15.30199996123286
STARLINK-31435          
1 59004U 24036G   26120.46375669 -.00002344  00000+0 -67055-4 0  9991
2 59004  53.1605 197.3898 0000955  91.7819 268.3292 15.30201087123262
STARLINK-31484          
1 59005U 24036H   26120.72818134  .00000707  00000+0  36007-4 0  9992
2 59005  53.1607 196.1936 0001165 102.9297 257.1834 15.30193499123292
